{
    "links": {
        "self": "http://www.neowsapp.com/rest/v1/neo/54005661?api_key=iIulBulltgU6a56xZRHN4H3l9WmuAYTsLGpBGhQ2"
    },
    "id": "54005661",
    "neo_reference_id": "54005661",
    "name": "(2020 DQ3)",
    "designation": "2020 DQ3",
    "nasa_jpl_url": "http://ssd.jpl.nasa.gov/sbdb.cgi?sstr=54005661",
    "absolute_magnitude_h": 24.88,
    "estimated_diameter": {
        "kilometers": {
            "estimated_diameter_min": 0.0280902094,
            "estimated_diameter_max": 0.0628116177
        },
        "meters": {
            "estimated_diameter_min": 28.0902093949,
            "estimated_diameter_max": 62.8116177092
        },
        "miles": {
            "estimated_diameter_min": 0.0174544415,
            "estimated_diameter_max": 0.0390293177
        },
        "feet": {
            "estimated_diameter_min": 92.1594825912,
            "estimated_diameter_max": 206.074867845
        }
    },
    "is_potentially_hazardous_asteroid": false,
    "close_approach_data": [
        {
            "close_approach_date": "2018-03-26",
            "close_approach_date_full": "2018-Mar-26 06:02",
            "epoch_date_close_approach": 1522044120000,
            "relative_velocity": {
                "kilometers_per_second": "19.2622591483",
                "kilometers_per_hour": "69344.1329338465",
                "miles_per_hour": "43087.7474888115"
            },
            "miss_distance": {
                "astronomical": "0.4290613719",
                "lunar": "166.9048736691",
                "kilometers": "64186667.335517853",
                "miles": "39883745.6484302514"
            },
            "orbiting_body": "Earth"
        },
        {
            "close_approach_date": "2020-02-26",
            "close_approach_date_full": "2020-Feb-26 00:30",
            "epoch_date_close_approach": 1582677000000,
            "relative_velocity": {
                "kilometers_per_second": "9.4220233587",
                "kilometers_per_hour": "33919.2840913795",
                "miles_per_hour": "21076.124051113"
            },
            "miss_distance": {
                "astronomical": "0.036505903",
                "lunar": "14.200796267",
                "kilometers": "5461205.33122661",
                "miles": "3393435.637122818"
            },
            "orbiting_body": "Earth"
        },
        {
            "close_approach_date": "2021-12-23",
            "close_approach_date_full": "2021-Dec-23 05:50",
            "epoch_date_close_approach": 1640238600000,
            "relative_velocity": {
                "kilometers_per_second": "14.8509325696",
                "kilometers_per_hour": "53463.3572505766",
                "miles_per_hour": "33220.0510649485"
            },
            "miss_distance": {
                "astronomical": "0.398230897",
                "lunar": "154.911818933",
                "kilometers": "59574493.95938939",
                "miles": "37017874.004737982"
            },
            "orbiting_body": "Earth"
        }
    ],
    "orbital_data": {
        "orbit_id": "9",
        "orbit_determination_date": "2020-03-15 07:08:27",
        "first_observation_date": "2020-02-26",
        "last_observation_date": "2020-03-15",
        "data_arc_in_days": 18,
        "observations_used": 95,
        "orbit_uncertainty": "7",
        "minimum_orbit_intersection": ".0362268",
        "jupiter_tisserand_invariant": "4.342",
        "epoch_osculation": "2459000.5",
        "eccentricity": ".3605925286652589",
        "semi_major_axis": "1.551419209974388",
        "inclination": "14.03101067054037",
        "ascending_node_longitude": "340.5021753505757",
        "orbital_period": "705.8170966720985",
        "perihelion_distance": ".9919890340298648",
        "perihelion_argument": "148.7279776625854",
        "aphelion_distance": "2.11084938591891",
        "perihelion_time": "2458881.457086098486",
        "mean_anomaly": "60.7174992028486",
        "mean_motion": ".5100471520134418",
        "equinox": "J2000",
        "orbit_class": {
            "orbit_class_type": "APO",
            "orbit_class_description": "Near-Earth asteroid orbits which cross the Earth’s orbit similar to that of 1862 Apollo",
            "orbit_class_range": "a (semi-major axis) > 1.0 AU; q (perihelion) < 1.017 AU"
        }
    },
    "is_sentry_object": false
}